NORAD_CAT_ID,OBJECT_NAME,OBJECT_TYPE,EPOCH,MEAN_MOTION,ECCENTRICITY,INCLINATION,RA_OF_ASC_NODE,ARG_OF_PERICENTER,MEAN_ANOMALY,BSTAR,MEAN_MOTION_DOT,MEAN_MOTION_DDOT,TLE_LINE0,TLE_LINE1,TLE_LINE2,SEMIMAJOR_AXIS,PERIOD,APOGEE,PERIGEE,DECAYED
54204.0,STARLINK-5241,PAYLOAD,2023-11-21 19:45:28,15.08827002,0.0001371,53.2161,159.5075,100.4716,259.6431,-5.5497e-05,-1.171e-05,0.0,0 STARLINK-5241,1 54204U 22141AZ  23325.82324311 -.00001171  00000-0 -55497-4 0  9990,2 54204  53.2161 159.5075 0001371 100.4716 259.6431 15.08827002 59364,6917.92,95.438,540.734,538.837,0.0
54204.0,STARLINK-5241,PAYLOAD,2023-11-22 13:14:42,15.08834537,0.0001342,53.2164,156.2361,104.2259,255.8882,3.1044e-05,2.06e-06,0.0,0 STARLINK-5241,1 54204U 22141AZ  23326.55188133  .00000206  00000-0  31044-4 0  9999,2 54204  53.2164 156.2361 0001342 104.2259 255.8882 15.08834537 59472,6917.897,95.438,540.69,538.834,0.0
54204.0,STARLINK-5241,PAYLOAD,2023-11-22 19:36:15,15.08837435,0.0001386,53.2156,155.0472,102.6157,257.499,0.00015937,2.249e-05,0.0,0 STARLINK-5241,1 54204U 22141AZ  23326.81684181  .00002249  00000-0  15937-3 0  9993,2 54204  53.2156 155.0472 0001386 102.6157 257.4990 15.08837435 59748,6917.888,95.438,540.712,538.794,0.0
54204.0,STARLINK-5241,PAYLOAD,2023-11-23 13:05:29,15.08842463,0.0001318,53.2156,151.7761,103.4129,256.701,0.00038831,5.898e-05,0.0,0 STARLINK-5241,1 54204U 22141AZ  23327.54548255  .00005898  00000-0  38831-3 0  9996,2 54204  53.2156 151.7761 0001318 103.4129 256.7010 15.08842463 59624,6917.873,95.437,540.65,538.826,0.0
54204.0,STARLINK-5241,PAYLOAD,2023-11-23 17:51:38,15.08852685,0.0001308,53.2155,150.8843,99.0407,261.0733,0.00049172,7.549e-05,0.0,0 STARLINK-5241,1 54204U 22141AZ  23327.74420066  .00007549  00000-0  49172-3 0  9992,2 54204  53.2155 150.8843 0001308  99.0407 261.0733 15.08852685 59653,6917.842,95.437,540.611,538.802,0.0
54204.0,STARLINK-5241,PAYLOAD,2023-11-23 22:37:48,15.08857889,0.0001316,53.2155,149.9922,101.2101,258.9039,0.00051461,7.916e-05,0.0,0 STARLINK-5241,1 54204U 22141AZ  23327.94291759  .00007916  00000-0  51461-3 0  9991,2 54204  53.2155 149.9922 0001316 101.2101 258.9039 15.08857889 59910,6917.826,95.436,540.601,538.78,0.0
54204.0,STARLINK-5241,PAYLOAD,2023-11-24 11:20:52,15.0885077,0.000131,53.2147,147.6101,96.8072,263.3069,0.00010318,1.355e-05,0.0,0 STARLINK-5241,1 54204U 22141AZ  23328.47283561  .00001355  00000-0  10318-3 0  9999,2 54204  53.2147 147.6101 0001310  96.8072 263.3069 15.08850770 59998,6917.847,95.437,540.619,538.806,0.0
54204.0,STARLINK-5241,PAYLOAD,2023-11-24 20:53:11,15.088517,0.0001294,53.2149,145.8266,97.3474,262.7665,0.00013503,1.862e-05,0.0,0 STARLINK-5241,1 54204U 22141AZ  23328.87027298  .00001862  00000-0  13503-3 0  9998,2 54204  53.2149 145.8266 0001294  97.3474 262.7665 15.08851700 59826,6917.845,95.437,540.605,538.814,0.0
54204.0,STARLINK-5241,PAYLOAD,2023-11-25 09:36:16,15.08849031,0.0001336,53.2154,143.4459,113.4004,246.7128,3.5804e-05,2.82e-06,0.0,0 STARLINK-5241,1 54204U 22141AZ  23329.40019080  .00000282  00000-0  35804-4 0  9992,2 54204  53.2154 143.4459 0001336 113.4004 246.7128 15.08849031 59905,6917.853,95.437,540.642,538.794,0.0
54204.0,STARLINK-5241,PAYLOAD,2023-11-25 20:43:58,15.08855059,0.0001312,53.215,141.3644,104.2253,255.8885,0.00012608,1.72e-05,0.0,0 STARLINK-5241,1 54204U 22141AZ  23329.86386708  .00001720  00000-0  12608-3 0  9990,2 54204  53.2150 141.3644 0001312 104.2253 255.8885 15.08855059 59977,6917.834,95.437,540.607,538.792,0.0
54204.0,STARLINK-5241,PAYLOAD,2023-11-26 11:02:26,15.08847989,0.0001473,53.2153,138.6908,94.8227,265.2933,9.0364e-05,1.151e-05,0.0,0 STARLINK-5241,1 54204U 22141AZ  23330.46002891  .00001151  00000-0  90364-4 0  9990,2 54204  53.2153 138.6908 0001473  94.8227 265.2933 15.08847989 60069,6917.856,95.437,540.74,538.702,0.0
54204.0,STARLINK-5241,PAYLOAD,2023-11-26 18:59:21,15.08849803,0.0001228,53.2149,137.2035,93.509,266.6043,0.00010146,1.328e-05,0.0,0 STARLINK-5241,1 54204U 22141AZ  23330.79122559  .00001328  00000-0  10146-3 0  9995,2 54204  53.2149 137.2035 0001228  93.5090 266.6043 15.08849803 60112,6917.85,95.437,540.565,538.866,0.0
54204.0,STARLINK-5241,PAYLOAD,2023-11-27 10:53:13,15.08840777,0.0001278,53.2144,134.2309,89.1672,270.9466,1.9598e-05,2.4e-07,0.0,0 STARLINK-5241,1 54204U 22141AZ  23331.45362979  .00000024  00000-0  19598-4 0  9994,2 54204  53.2144 134.2309 0001278  89.1672 270.9466 15.08840777 60444,6917.878,95.438,540.627,538.859,0.0
54204.0,STARLINK-5241,PAYLOAD,2023-11-27 17:14:46,15.08838149,0.0001301,53.2145,133.0408,93.5802,266.5339,7.4894e-05,9.04e-06,0.0,0 STARLINK-5241,1 54204U 22141AZ  23331.71859114  .00000904  00000-0  74894-4 0  9992,2 54204  53.2145 133.0408 0001301  93.5802 266.5339 15.08838149 60252,6917.886,95.438,540.651,538.851,0.0
54204.0,STARLINK-5241,PAYLOAD,2023-11-28 13:54:46,15.08841973,0.0001318,53.2159,129.1761,81.5938,278.5203,4.9475e-05,5e-06,0.0,0 STARLINK-5241,1 54204U 22141AZ  23332.57971058  .00000500  00000-0  49475-4 0  9998,2 54204  53.2159 129.1761 0001318  81.5938 278.5203 15.08841973 60386,6917.874,95.437,540.651,538.828,0.0
54204.0,STARLINK-5241,PAYLOAD,2023-11-28 17:05:33,15.0884341,0.0001411,53.2161,128.5817,74.927,285.1878,5.6456e-05,6.11e-06,0.0,0 STARLINK-5241,1 54204U 22141AZ  23332.71218947  .00000611  00000-0  56456-4 0  9995,2 54204  53.2161 128.5817 0001411  74.9270 285.1878 15.08843410 60631,6917.87,95.437,540.711,538.759,0.0
54204.0,STARLINK-5241,PAYLOAD,2023-11-29 13:45:34,15.08840257,0.0001445,53.2175,124.717,90.5962,269.5196,0.00010118,1.323e-05,0.0,0 STARLINK-5241,1 54204U 22141AZ  23333.57331028  .00001323  00000-0  10118-3 0  9991,2 54204  53.2175 124.7170 0001445  90.5962 269.5196 15.08840257 60539,6917.88,95.438,540.744,538.745,0.0
54204.0,STARLINK-5241,PAYLOAD,2023-11-30 10:25:35,15.08838413,0.0001545,53.2182,120.8523,97.347,262.7698,6.1891e-05,6.97e-06,0.0,0 STARLINK-5241,1 54204U 22141AZ  23334.43443369  .00000697  00000-0  61891-4 0  9997,2 54204  53.2182 120.8523 0001545  97.3470 262.7698 15.08838413 60898,6917.885,95.438,540.819,538.681,0.0
54204.0,STARLINK-5241,PAYLOAD,2023-12-01 16:37:54,15.08845316,0.0001752,53.2185,115.2023,102.1868,257.9321,1.7051e-05,-1.7e-07,0.0,0 STARLINK-5241,1 54204U 22141AZ  23335.69299168 -.00000017  00000-0  17051-4 0  9998,2 54204  53.2185 115.2023 0001752 102.1868 257.9321 15.08845316 61081,6917.864,95.437,540.941,538.517,0.0
54204.0,STARLINK-5241,PAYLOAD,2023-12-02 13:17:54,15.08847339,0.0001542,53.2184,111.3358,100.6734,259.4432,0.00014038,1.947e-05,0.0,0 STARLINK-5241,1 54204U 22141AZ  23336.55410498  .00001947  00000-0  14038-3 0  9998,2 54204  53.2184 111.3358 0001542 100.6734 259.4432 15.08847339 60985,6917.858,95.437,540.79,538.656,0.0
54204.0,STARLINK-5241,PAYLOAD,2023-12-02 16:28:40,15.08853578,0.000142,53.2183,110.7418,87.5766,272.5389,0.0001762,2.518e-05,0.0,0 STARLINK-5241,1 54204U 22141AZ  23336.68658118  .00002518  00000-0  17620-3 0  9990,2 54204  53.2183 110.7418 0001420  87.5766 272.5389 15.08853578 61000,6917.839,95.437,540.686,538.722,0.0
54204.0,STARLINK-5241,PAYLOAD,2023-12-03 13:08:44,15.08820893,0.0001321,53.2181,106.879,103.6762,256.4377,-9.5474e-05,-1.806e-05,0.0,0 STARLINK-5241,1 54204U 22141AZ  23337.54773587 -.00001806  00000-0 -95474-4 0  9999,2 54204  53.2181 106.8790 0001321 103.6762 256.4377 15.08820893 61139,6917.939,95.439,540.718,538.89,0.0
54204.0,STARLINK-5241,PAYLOAD,2023-12-03 17:54:53,15.08814676,0.0001346,53.2171,105.9826,103.9239,256.1903,-0.00027414,-4.645e-05,0.0,0 STARLINK-5241,1 54204U 22141AZ  23337.74645213 -.00004645  00000-0 -27414-3 0  9997,2 54204  53.2171 105.9826 0001346 103.9239 256.1903 15.08814676 61399,6917.958,95.439,540.754,538.892,0.0
54204.0,STARLINK-5241,PAYLOAD,2023-12-04 12:59:31,15.08824607,0.0001336,53.2177,102.4141,77.7002,282.4139,-0.00012378,-2.256e-05,0.0,0 STARLINK-5241,1 54204U 22141AZ  23338.54133494 -.00002256  00000-0 -12378-3 0  9998,2 54204  53.2177 102.4141 0001336  77.7002 282.4139 15.08824607 61288,6917.927,95.439,540.717,538.868,0.0
54204.0,STARLINK-5241,PAYLOAD,2023-12-05 12:50:17,15.08844563,0.0001186,53.2175,97.9517,122.6929,237.4178,0.00040986,6.242e-05,0.0,0 STARLINK-5241,1 54204U 22141AZ  23339.53492171  .00006242  00000-0  40986-3 0  9991,2 54204  53.2175  97.9517 0001186 122.6929 237.4178 15.08844563 61435,6917.866,95.437,540.552,538.911,0.0
54204.0,STARLINK-5241,PAYLOAD,2023-12-05 17:36:26,15.08854194,0.0001255,53.2181,97.0582,105.8653,254.2477,0.00051746,7.96e-05,0.0,0 STARLINK-5241,1 54204U 22141AZ  23339.73363690  .00007960  00000-0  51746-3 0  9990,2 54204  53.2181  97.0582 0001255 105.8653 254.2477 15.08854194 61697,6917.837,95.437,540.57,538.834,0.0
54204.0,STARLINK-5241,PAYLOAD,2023-12-06 11:05:40,15.0885228,0.0003095,53.2177,93.7836,142.9685,217.1521,0.00025907,3.839e-05,0.0,0 STARLINK-5241,1 54204U 22141AZ  23340.46227930  .00003839  00000-0  25907-3 0  9999,2 54204  53.2177  93.7836 0003095 142.9685 217.1521 15.08852280 61803,6917.843,95.437,541.849,537.567,0.0
54204.0,STARLINK-5241,PAYLOAD,2023-12-06 12:41:04,15.08855666,0.0001222,53.217,93.4881,112.1263,247.9859,5.5287e-05,5.92e-06,0.0,0 STARLINK-5241,1 54204U 22141AZ  23340.52851980  .00000592  00000-0  55287-4 0  9992,2 54204  53.2170  93.4881 0001222 112.1263 247.9859 15.08855666 61585,6917.833,95.437,540.543,538.852,0.0
54204.0,STARLINK-5241,PAYLOAD,2023-12-07 10:56:28,15.08867485,0.0001017,53.2186,89.3281,75.6208,284.4897,-0.00043292,-7.176e-05,0.0,0 STARLINK-5241,1 54204U 22141AZ  23341.45588466 -.00007176  00000-0 -43292-3 0  9990,2 54204  53.2186  89.3281 0001017  75.6208 284.4897 15.08867485 61955,6917.796,95.436,540.365,538.958,0.0
54204.0,STARLINK-5241,PAYLOAD,2023-12-07 12:31:51,15.08871468,0.0001078,53.2176,89.0319,67.1692,292.9414,-0.00050193,-8.274e-05,0.0,0 STARLINK-5241,1 54204U 22141AZ  23341.52212377 -.00008274  00000-0 -50193-3 0  9991,2 54204  53.2176  89.0319 0001078  67.1692 292.9414 15.08871468 61734,6917.784,95.436,540.395,538.903,0.0
